[{"OBJECT_NAME":"STARLINK-35087","OBJECT_ID":"2025-200X","EPOCH":"2026-03-09T16:54:42.668064","MEAN_MOTION":15.05647932,"ECCENTRICITY":2.221e-5,"INCLINATION":97.6018,"RA_OF_ASC_NODE":139.8223,"ARG_OF_PERICENTER":248.52,"MEAN_ANOMALY":111.6003,"EPHEMERIS_TYPE":0,"CLASSIFICATION_TYPE":"U","NORAD_CAT_ID":65541,"ELEMENT_SET_NO":999,"REV_AT_EPOCH":2913,"BSTAR":0.00034650721,"MEAN_MOTION_DOT":4.942e-5,"MEAN_MOTION_DDOT":0},{"OBJECT_NAME":"THOR ABLESTAR DEB","OBJECT_ID":"1961-015EX","EPOCH":"2026-03-09T22:58:31.837152","MEAN_MOTION":15.04262729,"ECCENTRICITY":0.00191468,"INCLINATION":67.4961,"RA_OF_ASC_NODE":12.7011,"ARG_OF_PERICENTER":32.2919,"MEAN_ANOMALY":327.9391,"EPHEMERIS_TYPE":0,"CLASSIFICATION_TYPE":"U","NORAD_CAT_ID":461,"ELEMENT_SET_NO":999,"REV_AT_EPOCH":37086,"BSTAR":0.0020469071,"MEAN_MOTION_DOT":0.00028661,"MEAN_MOTION_DDOT":0}]
